    CK17U070  2019 09 15.3758  6.428246  1.001772  326.4327  276.2706  142.6155  20230307   8.3  2.0  C/2017 U7 (PANSTARRS)                                    MPEC 2023-A50
    PK17W030  2018 02 26.5703  3.865671  0.506327  327.8086  210.2032   18.1686  20230307  10.5  4.0  P/2017 W3 (Gibbs)                                        MPC114601
    CK17X010  2018 06 13.9047  4.662846  0.849571  283.1199  251.1596   31.3395  20230307  10.0  4.0  C/2017 X1 (PANSTARRS)                                    MPEC 2021-R75
    CK17Y020  2020 11  5.1061  4.632452  1.001469  147.9347   66.0140  128.4381  20230307  15.0  4.0  C/2017 Y2 (PANSTARRS)                                    MPEC 2022-QD9
    PK17Y030  2018 02  8.3213  1.282246  0.869418   67.5691  153.8635   27.5673  20230307  16.5  4.0  P/2017 Y3 (Leonard)                                      MPC111770
    CK18A030  2019 01 10.7492  3.279120  0.990981   86.3533  194.2942  139.5390  20230307   8.5  4.0  C/2018 A3 (ATLAS)                                        MPEC 2021-P47
    CK18A040  2018 05 19.6079  2.389225  0.803918  355.9554   97.5771    3.1508  20230307  14.0  4.0  C/2018 A4 (PANSTARRS)                                    MPC114601
    PK18A050  2017 09 24.4507  2.681802  0.523500  359.4870   87.7903   23.6121  20230307  15.0  4.0  P/2018 A5 (PANSTARRS)                                    MPC109147
    CK18A060  2019 07 11.4576  3.018023  0.799412  264.3480  340.3848   77.0639  20230307   9.0  4.0  C/2018 A6 (Gibbs)                                        MPEC 2022-ST7
    CK18B010  2018 03 27.1202  5.132956  0.998535   68.4099  133.1915  162.4191  20230307   9.0  4.0  C/2018 B1 (Lemmon)                                       MPEC 2022-O08
    PK18C010  2018 02 23.3331  2.644969  0.532054  235.6945  270.3292    5.1111  20230307  13.5  4.0  P/2018 C1 (Lemmon-Read)                                  MPC114601
    CK18C020  2018 05 31.1515  1.960506  0.999905  133.9918   91.2677   34.4633  20230307  13.0  4.0  C/2018 C2 (Lemmon)                                       MPC114601
    CK18D04O  2019 08 16.8569  2.413725  0.904751  176.3080  251.4363  160.4425  20230307  11.0  4.0  C/2018 DO4 (Lemmon)                                      MPEC 2022-M88
    CK18E010  2018 04 18.2481  2.691425  0.950039  299.2816  146.8254   72.4994  20230307  10.5  4.0  C/2018 E1 (ATLAS)                                        MPC114602
    CK18E04N  2018 06  2.0054  1.461020  0.918410   35.0169  136.1294   81.9480  20230307  15.0  4.0  C/2018 EN4 (NEOWISE)                                     MPC114602
    CK18E09F  2018 05 21.0182  1.562264  0.996516   72.6354  172.5625   84.6300  20230307  18.0  2.0  C/2018 EF9 (Lemmon)                                      MPEC 2023-CD7
    CK18F010  2018 12 11.8170  2.997130  0.987445   71.5817  177.2770   46.0819  20230307  11.5  4.0  C/2018 F1 (Grauer)                                       MPEC 2021-R75
    CK18F040  2019 12  3.0451  3.443844  0.999536  263.2183   26.5155   78.0839  20230307  11.0  6.0  C/2018 F4 (PANSTARRS)                                    MPEC 2023-A50
    CK18F04a  2019 12  3.0333  3.443712  0.999483  263.2151   26.5157   78.0841  20230307  11.0  6.0  C/2018 F4-A                                              MPEC 2021-Y10
    CK18F04b  2019 12  2.9701  3.443531  0.999572  263.2009   26.5152   78.0850  20230307  11.0  6.0  C/2018 F4-B                                              MPEC 2023-D41
    PK18H020  2027 03 21.9103  2.006505  0.542308  120.0972   67.7831    7.4302  20230307  16.6  2.0  P/2018 H2 (PANSTARRS)                                    MPC114602
    CK18K010  2018 04  8.0658  1.880188  0.937793  325.2514  260.1958  164.1867  20230307  14.9  4.0  C/2018 K1 (Weiland)                                      MPC114602
    CK18K03J  2019 09  9.9756  3.626423  0.996134  217.6603   91.6572  136.6693  20230307  12.2  2.0  C/2018 KJ3 (Lemmon)                                      MPEC 2021-R75
    PK18L010  2025 11  5.7253  1.893769  0.481731   18.0365  268.6109   10.5787  20230307  15.0  4.0  P/2018 L1 (PANSTARRS)                                    MPC114602
    CK18L020  2018 12  2.0905  1.716549  0.993306   56.3308  242.9989   67.2501  20230307  10.0  4.0  C/2018 L2 (ATLAS)                                        MPEC 2021-P47
    PK18L040  2018 07 30.5668  1.686642  0.658967  140.6149  145.1787   26.6162  20230307  17.5  4.0  P/2018 L4 (PANSTARRS)                                    MPC114603
    PK18L050  2025 04  3.7251  2.307383  0.364184   93.9633  219.0381    2.2089  20230307  14.5  4.0  P/2018 L5 (Leonard)                                      MPC119996
    CK18M010  2018 07 10.8897  1.305935  0.939285   14.2494  339.4213   37.2774  20230307  15.5  4.0  C/2018 M1 (Catalina)                                     MPC117070
    CK18N010  2018 08  2.9805  1.308553  0.997447  354.7369  292.5483  159.4066  20230307  15.5  4.0  C/2018 N1 (NEOWISE)                                      MPEC 2022-M21
    CK18N020  2019 11 11.4028  3.128107  1.001014   24.4919   25.2032   77.5547  20230307   6.0  4.0  C/2018 N2 (ASASSN)                                       MPEC 2022-YN2
    CK18O010  2018 09  1.6395  1.557453  0.944555  162.7109   87.7960  153.9965  20230307  17.0  4.0  C/2018 O1 (ATLAS)                                        MPC114603
    PK18P030  2023 12 26.7151  1.750946  0.417125  305.9937   59.1597    8.9147  20230307  14.5  4.0  P/2018 P3 (PANSTARRS)                                    MPEC 2022-M21
    PK18P040  2018 11  9.1735  3.673444  0.450531    8.4456  353.0659   23.1076  20230307  12.0  4.0  P/2018 P4 (PANSTARRS)                                    MPC114603
    CK18P050  2019 02 28.1208  4.587721  0.642877  131.9847  216.1951    7.2467  20230307  11.0  4.0  C/2018 P5 (PANSTARRS)                                    MPEC 2021-P47
    CK18R030  2019 06  7.8285  1.283106  0.999185  112.7420  324.5792   69.7118  20230307   9.5  4.0  C/2018 R3 (Lemmon)                                       MPC118841
    CK18R040  2018 03  2.4057  1.724312  0.994983  345.3111  298.5545   11.6666  20230307  14.0  4.0  C/2018 R4 (Fuls)                                         MPEC 2022-M21
    CK18R050  2019 01 10.3316  3.632927  0.841399  178.2151  171.1215  103.7464  20230307  11.5  4.0  C/2018 R5 (Lemmon)                                       MPC114603
    CK18S020  2018 11  6.7209  5.474839  0.618780  290.8205   85.0973   64.1495  20230307   7.5  4.0  C/2018 S2 (TESS)                                         MPEC 2022-QC6
    CK18S030  2016 06 29.1909  8.012180  1.002420  263.9484   25.0451   78.2977  20230307   6.0  4.0  C/2018 S3 (TESS)                                         MPEC 2023-D54
    CK18U010  2021 11  3.1389  4.992821  1.001518  180.4739   75.4924  108.3172  20230307   5.0  4.0  C/2018 U1 (Lemmon)                                       MPEC 2023-E49
    CK18V010  2018 12  2.8362  0.390591  1.000361   89.1354  129.0911  144.1019  20230307  12.0  4.0  C/2018 V1 (Machholz-Fujikawa-Iwamoto)                    MPC114604
    CK18V020  2018 11 25.3669  2.485691  0.900870  319.0336  357.0820  159.1675  20230307  15.0  4.0  C/2018 V2 (ATLAS)                                        MPC115884
    PK18V02N  2026 08 14.9036  2.117552  0.478696  138.8851  226.4458   18.2569  20230307  15.0  4.0  P/2018 VN2 (Leonard)                                     MPEC 2023-CD7
    AK18V030  2019 09  9.2690  1.340393  0.989501    3.6099  308.7061  164.9619  20230307  15.7  2.0  A/2018 V3                                                MPEC 2022-VC5
    CK18V040  2019 03  1.5644  3.195179  0.984179  359.9522   78.2759   69.0283  20230307  12.5  4.0  C/2018 V4 (Africano)                                     MPEC 2022-M21
    PK18V050  2018 10  3.9121  4.699430  0.475607  260.6755  171.2858   10.5885  20230307  12.5  4.0  P/2018 V5 (Trujillo-Sheppard)                            MPEC 2021-P47
    CK18W010  2019 05 11.9847  1.358498  0.937359  251.2058  233.6633   83.3800  20230307  15.5  2.0  C/2018 W1 (Catalina)                                     MPEC 2021-P47
    CK18W020  2019 09  5.3221  1.461297  1.000602  158.0804  181.8213  116.6241  20230307   9.5  4.0  C/2018 W2 (Africano)                                     MPEC 2021-P47
    AK18W030  2021 04 13.0668  4.290406  0.993841  313.9656  251.6731  104.8201  20230307  10.5  2.0  A/2018 W3                                                MPEC 2023-A50
    CK18X020  2019 07  8.2855  2.120380  0.984810  161.9481  340.8047   23.0730  20230307  12.0  4.0  C/2018 X2 (Fitzsimmons)                                  MPC119996
    CK18X030  2018 12 31.2047  2.691099  0.782547  359.7502   78.8240   43.4111  20230307  14.5  4.0  C/2018 X3 (PANSTARRS)                                    MPC114604
    CK18Y010  2019 02  5.8463  1.283839  0.990139  357.9113  147.4820  160.4119  20230307  11.5  4.0  C/2018 Y1 (Iwamoto)                                      MPC118842
    PK18Y020  2019 01  1.8930  3.881219  0.479264  162.2443  297.2036   11.6845  20230307  11.5  4.0  P/2018 Y2 (Africano)                                     MPC114605
    PK19A010  2018 10 11.1508  2.204273  0.569165  150.7101  312.2619   13.7518  20230307  16.0  4.0  P/2019 A1 (PANSTARRS)                                    MPC114605
    PK19A020  2018 11 20.5903  3.530240  0.382170  323.8546  139.4457   14.8611  20230307  10.5  4.0  P/2019 A2 (ATLAS)                                        MPEC 2021-P47
    PK19A030  2024 03  2.5235  2.307588  0.266089  325.6623   31.2940   15.3751  20230307  16.0  4.0  P/2019 A3 (PANSTARRS)                                    MPEC 2022-M21
    PK19A040  2023 03  3.2988  2.385806  0.087101  343.0143  119.2430   13.3064  20230307  15.0  4.0  P/2019 A4 (PANSTARRS)                                    MPEC 2022-L66
    CK19A050  2019 06  6.6603  6.314660  0.706142  355.8043  146.6067   67.5525  20230307   9.5  4.0  C/2019 A5 (PANSTARRS)                                    MPEC 2021-P47
